{"type": "FeatureCollection", "features": [ {"type": "Feature", "properties": {"norad_id": 43108, "name": "BEIDOU-3 M8 (C28)", "group": "beidou", "lat": 50.54912702782154, "lon": 8.747164775744507, "alt_km": 21534.104956282205, "timestamp": "2025-12-17T09:00:17.413529+00:00", "meta": {"OBJECT_NAME": "BEIDOU-3 M8 (C28)", "OBJECT_ID": "2018-003B", "EPOCH": "2025-12-15T15:46:56.352288", "MEAN_MOTION": 1.86230781, "ECCENTRICITY": 0.00047156, "INCLINATION": 54.4868, "RA_OF_ASC_NODE": 308.6954, "ARG_OF_PERICENTER": 275.6738, "MEAN_ANOMALY": 84.2592, "EPHEMERIS_TYPE": 0, "CLASSIFICATION_TYPE": "U", "NORAD_CAT_ID": 43108, "ELEMENT_SET_NO": 999, "REV_AT_EPOCH": 5394, "BSTAR": 0, "MEAN_MOTION_DOT": -9.9e-07, "MEAN_MOTION_DDOT": 0}, "tle": {"line1": "1 43108U 18003B   25349.65759667 -.00000099  00000+0  00000+0 0  9999", "line2": "2 43108  54.4868 308.6954 0004715 275.6738  84.2592  1.86230781 53940"}}, "geometry": {"type": "Point", "coordinates": [8.747164775744507, 50.54912702782154]}}, {"type": "Feature", "properties": {"norad_id": 43207, "name": "BEIDOU-3 M4 (C22)", "group": "beidou", "lat": 35.89358727231877, "lon": -139.44292639171846, "alt_km": 21530.735520424547, "timestamp": "2025-12-17T09:00:17.413540+00:00", "meta": {"OBJECT_NAME": "BEIDOU-3 M4 (C22)", "OBJECT_ID": "2018-018A", "EPOCH": "2025-12-13T22:50:30.052608", "MEAN_MOTION": 1.8623122, "ECCENTRICITY": 0.00041094, "INCLINATION": 56.4872, "RA_OF_ASC_NODE": 69.2635, "ARG_OF_PERICENTER": 7.3509, "MEAN_ANOMALY": 352.6729, "EPHEMERIS_TYPE": 0, "CLASSIFICATION_TYPE": "U", "NORAD_CAT_ID": 43207, "ELEMENT_SET_NO": 999, "REV_AT_EPOCH": 5329, "BSTAR": 0, "MEAN_MOTION_DOT": -8.1e-07, "MEAN_MOTION_DDOT": 0}, "tle": {"line1": "1 43207U 18018A   25347.95173672 -.00000081  00000+0  00000+0 0  9993", "line2": "2 43207  56.4872  69.2635 0004109   7.3509 352.6729  1.86231220 53297"}}, "geometry": {"type": "Point", "coordinates": [-139.44292639171846, 35.89358727231877]}}, {"type": "Feature", "properties": {"norad_id": 43208, "name": "BEIDOU-3 M3 (C21)", "group": "beidou", "lat": 56.50723514205403, "lon": 160.4072918228892, "alt_km": 21534.38244260689, "timestamp": "2025-12-17T09:00:17.413551+00:00", "meta": {"OBJECT_NAME": "BEIDOU-3 M3 (C21)", "OBJECT_ID": "2018-018B", "EPOCH": "2025-12-14T00:26:16.877760", "MEAN_MOTION": 1.86231433, "ECCENTRICITY": 0.00066523, "INCLINATION": 56.4868, "RA_OF_ASC_NODE": 69.2653, "ARG_OF_PERICENTER": 316.6996, "MEAN_ANOMALY": 43.266, "EPHEMERIS_TYPE": 0, "CLASSIFICATION_TYPE": "U", "NORAD_CAT_ID": 43208, "ELEMENT_SET_NO": 999, "REV_AT_EPOCH": 5329, "BSTAR": 0, "MEAN_MOTION_DOT": -8.1e-07, "MEAN_MOTION_DDOT": 0}, "tle": {"line1": "1 43208U 18018B   25348.01825090 -.00000081  00000+0  00000+0 0  9990", "line2": "2 43208  56.4868  69.2653 0006652 316.6996  43.2660  1.86231433 53297"}}, "geometry": {"type": "Point", "coordinates": [160.4072918228892, 56.50723514205403]}}, {"type": "Feature", "properties": {"norad_id": 43245, "name": "BEIDOU-3 M9 (C29)", "group": "beidou", "lat": -41.308174037935764, "lon": -92.7636643451244, "alt_km": 21529.1961772231, "timestamp": "2025-12-17T09:00:17.413562+00:00", "meta": {"OBJECT_NAME": "BEIDOU-3 M9 (C29)", "OBJECT_ID": "2018-029A", "EPOCH": "2025-12-15T07:24:03.092832", "MEAN_MOTION": 1.86228295, "ECCENTRICITY": 0.00015379, "INCLINATION": 54.363, "RA_OF_ASC_NODE": 306.3776, "ARG_OF_PERICENTER": 283.4598, "MEAN_ANOMALY": 76.5102, "EPHEMERIS_TYPE": 0, "CLASSIFICATION_TYPE": "U", "NORAD_CAT_ID": 43245, "ELEMENT_SET_NO": 999, "REV_AT_EPOCH": 5247, "BSTAR": 0, "MEAN_MOTION_DOT": -9.9e-07, "MEAN_MOTION_DDOT": 0}, "tle": {"line1": "1 43245U 18029A   25349.30836913 -.00000099  00000+0  00000+0 0  9991", "line2": "2 43245  54.3630 306.3776 0001537 283.4598  76.5102  1.86228295 52470"}}, "geometry": {"type": "Point", "coordinates": [-92.7636643451244, -41.308174037935764]}}, {"type": "Feature", "properties": {"norad_id": 43246, "name": "BEIDOU-3 M10 (C30)", "group": "beidou", "lat": -8.83881760102381, "lon": -60.09151230741211, "alt_km": 21518.440301141603, "timestamp": "2025-12-17T09:00:17.413573+00:00", "meta": {"OBJECT_NAME": "BEIDOU-3 M10 (C30)", "OBJECT_ID": "2018-029B", "EPOCH": "2025-12-16T07:37:14.387232", "MEAN_MOTION": 1.86228975, "ECCENTRICITY": 0.00041174, "INCLINATION": 54.3596, "RA_OF_ASC_NODE": 306.3695, "ARG_OF_PERICENTER": 1.76, "MEAN_ANOMALY": 358.228, "EPHEMERIS_TYPE": 0, "CLASSIFICATION_TYPE": "U", "NORAD_CAT_ID": 43246, "ELEMENT_SET_NO": 999, "REV_AT_EPOCH": 5247, "BSTAR": 0, "MEAN_MOTION_DOT": -9.6e-07, "MEAN_MOTION_DDOT": 0}, "tle": {"line1": "1 43246U 18029B   25350.31752763 -.00000096  00000+0  00000+0 0  9992", "line2": "2 43246  54.3596 306.3695 0004117   1.7600 358.2280  1.86228975 52476"}}, "geometry": {"type": "Point", "coordinates": [-60.09151230741211, -8.83881760102381]}}, {"type": "Feature", "properties": {"norad_id": 43539, "name": "BEIDOU-2 IGSO-7 (C16)", "group": "beidou", "lat": 11.158424865325282, "lon": -23.28507501961447, "alt_km": 35646.53489800345, "timestamp": "2025-12-17T09:00:17.413584+00:00", "meta": {"OBJECT_NAME": "BEIDOU-2 IGSO-7 (C16)", "OBJECT_ID": "2018-057A", "EPOCH": "2025-12-15T07:47:07.120608", "MEAN_MOTION": 1.00256546, "ECCENTRICITY": 0.00926218, "INCLINATION": 55.1766, "RA_OF_ASC_NODE": 164.6485, "ARG_OF_PERICENTER": 235.2644, "MEAN_ANOMALY": 271.8458, "EPHEMERIS_TYPE": 0, "CLASSIFICATION_TYPE": "U", "NORAD_CAT_ID": 43539, "ELEMENT_SET_NO": 999, "REV_AT_EPOCH": 2728, "BSTAR": 0, "MEAN_MOTION_DOT": -2.3e-07, "MEAN_MOTION_DDOT": 0}, "tle": {"line1": "1 43539U 18057A   25349.32438797 -.00000023  00000+0  00000+0 0  9995", "line2": "2 43539  55.1766 164.6485 0092621 235.2644 271.8458  1.00256546 27289"}}, "geometry": {"type": "Point", "coordinates": [-23.28507501961447, 11.158424865325282]}}, {"type": "Feature", "properties": {"norad_id": 43581, "name": "BEIDOU-3 M5 (C23)", "group": "beidou", "lat": -14.898010273837148, "lon": 19.612022545768042, "alt_km": 21535.753353018186, "timestamp": "2025-12-17T09:00:17.413595+00:00", "meta": {"OBJECT_NAME": "BEIDOU-3 M5 (C23)", "OBJECT_ID": "2018-062A", "EPOCH": "2025-12-12T05:55:01.607232", "MEAN_MOTION": 1.86228672, "ECCENTRICITY": 0.00021016, "INCLINATION": 54.0891, "RA_OF_ASC_NODE": 188.6597, "ARG_OF_PERICENTER": 354.1416, "MEAN_ANOMALY": 5.9159, "EPHEMERIS_TYPE": 0, "CLASSIFICATION_TYPE": "U", "NORAD_CAT_ID": 43581, "ELEMENT_SET_NO": 999, "REV_AT_EPOCH": 5015, "BSTAR": 0, "MEAN_MOTION_DOT": 7.9e-07, "MEAN_MOTION_DDOT": 0}, "tle": {"line1": "1 43581U 18062A   25346.24654638  .00000079  00000+0  00000+0 0  9990", "line2": "2 43581  54.0891 188.6597 0002101 354.1416   5.9159  1.86228672 50154"}}, "geometry": {"type": "Point", "coordinates": [19.612022545768042, -14.898010273837148]}}, {"type": "Feature", "properties": {"norad_id": 43582, "name": "BEIDOU-3 M6 (C24)", "group": "beidou", "lat": -49.4059955881187, "lon": 130.70227059666894, "alt_km": 21543.436327923788, "timestamp": "2025-12-17T09:00:17.413607+00:00", "meta": {"OBJECT_NAME": "BEIDOU-3 M6 (C24)", "OBJECT_ID": "2018-062B", "EPOCH": "2025-12-15T20:50:21.636672", "MEAN_MOTION": 1.86229812, "ECCENTRICITY": 0.00078211, "INCLINATION": 54.0887, "RA_OF_ASC_NODE": 188.5256, "ARG_OF_PERICENTER": 46.8936, "MEAN_ANOMALY": 313.2408, "EPHEMERIS_TYPE": 0, "CLASSIFICATION_TYPE": "U", "NORAD_CAT_ID": 43582, "ELEMENT_SET_NO": 999, "REV_AT_EPOCH": 5022, "BSTAR": 0, "MEAN_MOTION_DOT": 1.14e-06, "MEAN_MOTION_DDOT": 0}, "tle": {"line1": "1 43582U 18062B   25349.86830598  .00000114  00000+0  00000+0 0  9993", "line2": "2 43582  54.0887 188.5256 0007821  46.8936 313.2408  1.86229812 50224"}}, "geometry": {"type": "Point", "coordinates": [130.70227059666894, -49.4059955881187]}}, {"type": "Feature", "properties": {"norad_id": 43602, "name": "BEIDOU-3 M12 (C26)", "group": "beidou", "lat": -22.429545548829022, "lon": 169.86172059645946, "alt_km": 21522.092622201715, "timestamp": "2025-12-17T09:00:17.413618+00:00", "meta": {"OBJECT_NAME": "BEIDOU-3 M12 (C26)", "OBJECT_ID": "2018-067A", "EPOCH": "2025-12-15T19:20:53.031840", "MEAN_MOTION": 1.86227731, "ECCENTRICITY": 0.00092007, "INCLINATION": 54.1833, "RA_OF_ASC_NODE": 187.259, "ARG_OF_PERICENTER": 40.7418, "MEAN_ANOMALY": 319.394, "EPHEMERIS_TYPE": 0, "CLASSIFICATION_TYPE": "U", "NORAD_CAT_ID": 43602, "ELEMENT_SET_NO": 999, "REV_AT_EPOCH": 4970, "BSTAR": 0, "MEAN_MOTION_DOT": 1.15e-06, "MEAN_MOTION_DDOT": 0}, "tle": {"line1": "1 43602U 18067A   25349.80616935  .00000115  00000+0  00000+0 0  9993", "line2": "2 43602  54.1833 187.2590 0009200  40.7418 319.3940  1.86227731 49704"}}, "geometry": {"type": "Point", "coordinates": [169.86172059645946, -22.429545548829022]}}, {"type": "Feature", "properties": {"norad_id": 43603, "name": "BEIDOU-3 M11 (C25)", "group": "beidou", "lat": -45.5932507177847, "lon": 54.70812242057298, "alt_km": 21547.733526379543, "timestamp": "2025-12-17T09:00:17.413629+00:00", "meta": {"OBJECT_NAME": "BEIDOU-3 M11 (C25)", "OBJECT_ID": "2018-067B", "EPOCH": "2025-12-15T22:34:35.294592", "MEAN_MOTION": 1.86227255, "ECCENTRICITY": 0.00055828, "INCLINATION": 54.1803, "RA_OF_ASC_NODE": 187.2185, "ARG_OF_PERICENTER": 36.561, "MEAN_ANOMALY": 323.544, "EPHEMERIS_TYPE": 0, "CLASSIFICATION_TYPE": "U", "NORAD_CAT_ID": 43603, "ELEMENT_SET_NO": 999, "REV_AT_EPOCH": 4973, "BSTAR": 0, "MEAN_MOTION_DOT": 1.15e-06, "MEAN_MOTION_DDOT": 0}, "tle": {"line1": "1 43603U 18067B   25349.94068628  .00000115  00000+0  00000+0 0  9999", "line2": "2 43603  54.1803 187.2185 0005582  36.5610 323.5440  1.86227255 49734"}}, "geometry": {"type": "Point", "coordinates": [54.70812242057298, -45.5932507177847]}}]}